ONEWEB-0306             
1 49188U 21083C   23286.17197699  .00000113  00000+0  25272-3 0  9999
2 49188  87.9206 169.9942 0001902  82.9325 277.2023 13.18689144102400
ONEWEB-0307             
1 49189U 21083D   23286.19156567 -.00000078  00000+0 -24749-3 0  9991
2 49189  87.9037 154.8457 0001607  76.1281 284.0027 13.13466810103831
ONEWEB-0320             
1 49190U 21083E   23285.72304988  .00000128  00000+0  29262-3 0  9992
2 49190  87.9213 170.1073 0001654  73.8272 286.3041 13.18686008101028
ONEWEB-0321             
1 49191U 21083F   23286.02976762  .00000057  00000+0  10896-3 0  9996
2 49191  87.9140 109.1860 0001915  79.6905 280.4444 13.20769680108997
ONEWEB-0322             
1 49192U 21083G   23286.11116147  .00000019  00000+0  15922-4 0  9994
2 49192  87.9035 154.8508 0001702  55.2553 304.8736 13.13466391103816
ONEWEB-0324             
1 49193U 21083H   23286.39117549 -.00000154  00000+0 -42221-3 0  9995
2 49193  87.9208 169.9543 0001560  89.8199 270.3112 13.18685768102412
ONEWEB-0325             
1 49194U 21083J   23286.39539649  .00000080  00000+0  17152-3 0  9996
2 49194  87.9396 169.9173 0001809  74.1675 285.9656 13.18681757102422
ONEWEB-0326             
1 49195U 21083K   23286.18251508  .00000118  00000+0  26725-3 0  9997
2 49195  87.9210 169.9861 0001546  97.8846 262.2461 13.18687260102384
